NORAD_CAT_ID,OBJECT_NAME,OBJECT_TYPE,EPOCH,MEAN_MOTION,ECCENTRICITY,INCLINATION,RA_OF_ASC_NODE,ARG_OF_PERICENTER,MEAN_ANOMALY,BSTAR,MEAN_MOTION_DOT,MEAN_MOTION_DDOT,TLE_LINE0,TLE_LINE1,TLE_LINE2,SEMIMAJOR_AXIS,PERIOD,APOGEE,PERIGEE,DECAYED
49732.0,STARLINK-3246,PAYLOAD,2022-10-26 09:05:41,15.08838179,0.0002109,53.2177,282.1972,40.6341,319.4808,2.8782e-05,1.7e-06,0.0,0 STARLINK-3246,1 49732U 21115J   22299.37895195  .00000170  00000-0  28782-4 0  9995,2 49732  53.2177 282.1972 0002109  40.6341 319.4808 15.08838179 50764,6917.886,95.438,541.21,538.2919999999998,0.0
49732.0,STARLINK-3246,PAYLOAD,2022-10-26 15:27:13,15.0884073,0.0002119,53.2176,281.0079,42.3897,317.7258,0.00010399,1.367e-05,0.0,0 STARLINK-3246,1 49732U 21115J   22299.64391053  .00001367  00000-0  10399-3 0  9992,2 49732  53.2176 281.0079 0002119  42.3897 317.7258 15.08840730 49691,6917.878000000002,95.438,541.2090000000002,538.2769999999998,0.0
49732.0,STARLINK-3246,PAYLOAD,2022-10-27 07:21:05,15.08848067,0.0002365,53.2171,278.0341,45.4156,314.7029,0.00038443,5.837e-05,0.0,0 STARLINK-3246,1 49732U 21115J   22300.30631596  .00005837  00000-0  38443-3 0  9993,2 49732  53.2171 278.0341 0002365  45.4156 314.7029 15.08848067 49794,6917.856,95.437,541.357,538.085,0.0
49732.0,STARLINK-3246,PAYLOAD,2022-10-28 05:36:28,15.08857427,0.0002259,53.2165,273.8691,40.6756,319.4405,0.00022554,3.305e-05,0.0,0 STARLINK-3246,1 49732U 21115J   22301.23366423  .00003305  00000-0  22554-3 0  9994,2 49732  53.2165 273.8691 0002259  40.6756 319.4405 15.08857427 51044,6917.8269999999975,95.436,541.255,538.129,0.0
49732.0,STARLINK-3246,PAYLOAD,2022-10-28 07:11:51,15.08853737,0.0002171999999999,53.2168,273.573,43.05,317.0661,0.00012574,1.714e-05,0.0,0 STARLINK-3246,1 49732U 21115J   22301.29990475  .00001714  00000-0  12574-3 0  9993,2 49732  53.2168 273.5730 0002172  43.0500 317.0661 15.08853737 49940,6917.8380000000025,95.437,541.206,538.201,0.0
49732.0,STARLINK-3246,PAYLOAD,2022-10-29 05:27:15,15.0885878,0.0002066999999999,53.2169,269.4095,48.4874,311.6296,0.00023668,3.483e-05,0.0,0 STARLINK-3246,1 49732U 21115J   22302.22725721  .00003483  00000-0  23668-3 0  9998,2 49732  53.2169 269.4095 0002067  48.4874 311.6296 15.08858780 51192,6917.823,95.436,541.118,538.258,0.0
49732.0,STARLINK-3246,PAYLOAD,2022-10-29 08:38:01,15.08849028,0.0002038,53.216,268.8135,38.8282,321.2857,0.00019547,2.825e-05,0.0,0 STARLINK-3246,1 49732U 21115J   22302.35973702  .00002825  00000-0  19547-3 0  9996,2 49732  53.2160 268.8135 0002038  38.8282 321.2857 15.08849028 50100,6917.853,95.437,541.128,538.308,0.0
49732.0,STARLINK-3246,PAYLOAD,2022-10-29 14:59:33,15.0885334,0.0001979,53.2161,267.6262,44.4824,315.6327,0.00015633,2.202e-05,0.0,0 STARLINK-3246,1 49732U 21115J   22302.62469498  .00002202  00000-0  15633-3 0  9999,2 49732  53.2161 267.6262 0001979  44.4824 315.6327 15.08853340 51255,6917.84,95.437,541.0740000000002,538.336,0.0
49732.0,STARLINK-3246,PAYLOAD,2022-10-30 10:04:11,15.08842829,0.0001992,53.2167,264.0577,41.9975,318.117,7.084299999999997e-06,-1.75e-06,0.0,0 STARLINK-3246,1 49732U 21115J   22303.41957736 -.00000175  00000-0  70843-5 0  9998,2 49732  53.2167 264.0577 0001992  41.9975 318.1170 15.08842829 50269,6917.871999999999,95.437,541.115,538.359,0.0
49732.0,STARLINK-3246,PAYLOAD,2022-10-30 14:50:20,15.08848696,0.0002023,53.2167,263.1655,44.6792,315.4363,0.00014837,2.074e-05,0.0,0 STARLINK-3246,1 49732U 21115J   22303.61829455  .00002074  00000-0  14837-3 0  9994,2 49732  53.2167 263.1655 0002023  44.6792 315.4363 15.08848696 50294,6917.854,95.437,541.118,538.319,0.0
49732.0,STARLINK-3246,PAYLOAD,2022-10-31 03:33:25,15.08838446,0.0001829,53.2166,260.7857,42.8359,317.2776,-0.00013869,-2.495e-05,0.0,0 STARLINK-3246,1 49732U 21115J   22304.14821743 -.00002495  00000-0 -13869-3 0  9998,2 49732  53.2166 260.7857 0001829  42.8359 317.2776 15.08838446 50371,6917.885,95.438,541.015,538.485,0.0
49732.0,STARLINK-3246,PAYLOAD,2022-10-31 14:41:08,15.08840578,0.0001932,53.2166,258.7045,45.0848,315.0301,0.00010459,1.377e-05,0.0,0 STARLINK-3246,1 49732U 21115J   22304.61189986  .00001377  00000-0  10459-3 0  9994,2 49732  53.2166 258.7045 0001932  45.0848 315.0301 15.08840578 51550,6917.879,95.438,541.08,538.4069999999998,0.0
49732.0,STARLINK-3246,PAYLOAD,2022-11-01 08:10:22,15.08840307,0.0001878,53.2162,255.4334,44.5756,315.5387,0.00016408,2.324e-05,0.0,0 STARLINK-3246,1 49732U 21115J   22305.34054149  .00002324  00000-0  16408-3 0  9990,2 49732  53.2162 255.4334 0001878  44.5756 315.5387 15.08840307 50550,6917.879,95.438,541.044,538.445,0.0
49732.0,STARLINK-3246,PAYLOAD,2022-11-02 03:15:00,15.08835757,0.0001844,53.2164,251.8647,44.8131,315.301,0.00011433,1.532e-05,0.0,0 STARLINK-3246,1 49732U 21115J   22306.13542567  .00001532  00000-0  11433-3 0  9997,2 49732  53.2164 251.8647 0001844  44.8131 315.3010 15.08835757 51782,6917.893,95.438,541.034,538.4830000000002,0.0
49732.0,STARLINK-3246,PAYLOAD,2022-11-02 08:01:10,15.0883688,0.0001865999999999,53.2164,250.9722,46.9033,313.2115,8.9882e-05,1.143e-05,0.0,0 STARLINK-3246,1 49732U 21115J   22306.33414551  .00001143  00000-0  89882-4 0  9992,2 49732  53.2164 250.9722 0001866  46.9033 313.2115 15.08836880 50706,6917.89,95.438,541.0459999999998,538.464,0.0
49732.0,STARLINK-3246,PAYLOAD,2022-11-03 07:51:57,15.08844746,0.0001774999999999,53.2166,246.5132,39.6799,320.4323,0.00022805,3.344e-05,0.0,0 STARLINK-3246,1 49732U 21115J   22307.32774929  .00003344  00000-0  22805-3 0  9996,2 49732  53.2166 246.5132 0001775  39.6799 320.4323 15.08844746 51961,6917.866,95.437,540.9590000000002,538.503,0.0
49732.0,STARLINK-3246,PAYLOAD,2022-11-03 20:35:01,15.08856498,0.000137,53.2162,244.1342,34.0486,326.0594,0.00050555,7.771e-05,0.0,0 STARLINK-3246,1 49732U 21115J   22307.85766203  .00007771  00000-0  50555-3 0  9991,2 49732  53.2162 244.1342 0001370  34.0486 326.0594 15.08856498 50932,6917.83,95.437,540.643,538.747,0.0
49732.0,STARLINK-3246,PAYLOAD,2022-11-04 07:42:43,15.08866905,0.000222,53.217,242.053,40.1658,319.9498,0.00057765,8.924e-05,0.0,0 STARLINK-3246,1 49732U 21115J   22308.32133825  .00008924  00000-0  57765-3 0  9993,2 49732  53.2170 242.0530 0002220  40.1658 319.9498 15.08866905 52111,6917.7980000000025,95.436,541.1990000000002,538.127,0.0
49732.0,STARLINK-3246,PAYLOAD,2022-11-05 02:47:21,15.08839619,0.000189,53.2161,238.4839,38.1037,322.0088,-0.00026422,-4.491e-05,0.0,0 STARLINK-3246,1 49732U 21115J   22309.11621972 -.00004491  00000-0 -26422-3 0  9999,2 49732  53.2161 238.4839 0001890  38.1037 322.0088 15.08839619 52237,6917.882,95.438,541.054,538.439,0.0
49732.0,STARLINK-3246,PAYLOAD,2022-11-05 07:33:31,15.08828848,0.0002037,53.2167,237.5922,41.7653,318.3495,-0.00029569,-4.99e-05,0.0,0 STARLINK-3246,1 49732U 21115J   22309.31494687 -.00004990  00000-0 -29569-3 0  9991,2 49732  53.2167 237.5922 0002037  41.7653 318.3495 15.08828848 52269,6917.9140000000025,95.438,541.189,538.37,0.0
49732.0,STARLINK-3246,PAYLOAD,2022-11-05 12:19:41,15.08816826,0.0001846,53.2165,236.6997,42.0812,318.0322,-0.00054338,-8.92e-05,0.0,0 STARLINK-3246,1 49732U 21115J   22309.51367049 -.00008920  00000-0 -54338-3 0  9993,2 49732  53.2165 236.6997 0001846  42.0812 318.0322 15.08816826 51186,6917.951,95.439,541.0930000000002,538.539,0.0
49732.0,STARLINK-3246,PAYLOAD,2022-11-06 02:38:09,15.08823505,0.0001779,53.2162,234.0238,43.2872,316.8259,2.6483e-05,1.33e-06,0.0,0 STARLINK-3246,1 49732U 21115J   22310.10983767  .00000133  00000-0  26483-4 0  9998,2 49732  53.2162 234.0238 0001779  43.2872 316.8259 15.08823505 52387,6917.931,95.439,541.0269999999998,538.565,0.0
49732.0,STARLINK-3246,PAYLOAD,2022-11-06 12:10:29,15.0883106,0.0001816,53.2164,232.2395,42.7562,317.3571,0.00059735,9.229e-05,0.0,0 STARLINK-3246,1 49732U 21115J   22310.50728200  .00009229  00000-0  59735-3 0  9991,2 49732  53.2164 232.2395 0001816  42.7562 317.3571 15.08831060 51337,6917.908,95.438,541.029,538.516,0.0
49732.0,STARLINK-3246,PAYLOAD,2022-11-07 04:04:20,15.08841684,0.0001975,53.2165,229.2662,45.4384,314.677,0.00057818,8.926e-05,0.0,0 STARLINK-3246,1 49732U 21115J   22311.16968561  .00008926  00000-0  57818-3 0  9993,2 49732  53.2165 229.2662 0001975  45.4384 314.6770 15.08841684 52547,6917.875,95.437,541.107,538.374,0.0
49732.0,STARLINK-3246,PAYLOAD,2022-11-07 12:01:16,15.08835813,0.0001809,53.217,227.7801,39.3152,320.7971,0.00031949,4.8e-05,0.0,0 STARLINK-3246,1 49732U 21115J   22311.50088817  .00004800  00000-0  31949-3 0  9992,2 49732  53.2170 227.7801 0001809  39.3152 320.7971 15.08835813 52595,6917.893,95.438,541.01,538.507,0.0
49732.0,STARLINK-3246,PAYLOAD,2022-11-08 00:44:21,15.08862694,0.0001947,53.2164,225.4009,45.025,315.09,0.0015066,0.00023786,0.0,0 STARLINK-3246,1 49732U 21115J   22312.03080391  .00023786  00000-0  15066-2 0  9995,2 49732  53.2164 225.4009 0001947  45.0250 315.0900 15.08862694 51561,6917.811,95.436,541.023,538.3290000000002,0.0
49732.0,STARLINK-3246,PAYLOAD,2022-11-08 18:13:34,15.08884486,0.0001971,53.2165,222.1296,47.3675,312.7483,0.00086479,0.00013519,0.0,0 STARLINK-3246,1 49732U 21115J   22312.75942719  .00013519  00000-0  86479-3 0  9995,2 49732  53.2165 222.1296 0001971  47.3675 312.7483 15.08884486 52785,6917.744000000002,95.435,540.9730000000002,538.246,0.0
49732.0,STARLINK-3246,PAYLOAD,2022-11-08 22:59:43,15.0885973,0.0002023,53.2171,221.2377,37.1745,322.9387,-0.00014241,-2.555e-05,0.0,0 STARLINK-3246,1 49732U 21115J   22312.95814474 -.00002555  00000-0 -14241-3 0  9991,2 49732  53.2171 221.2377 0002023  37.1745 322.9387 15.08859730 52810,6917.82,95.436,541.085,538.286,0.0
49732.0,STARLINK-3246,PAYLOAD,2022-11-09 03:45:52,15.08860981,0.0001846,53.2171,220.346,29.3513,330.7583,6.7104e-05,7.81e-06,0.0,0 STARLINK-3246,1 49732U 21115J   22313.15686238  .00000781  00000-0  67104-4 0  9993,2 49732  53.2171 220.3460 0001846  29.3513 330.7583 15.08860981 51736,6917.816,95.436,540.9580000000002,538.404,0.0
